{"type": "FeatureCollection", "features": [ {"type": "Feature", "properties": {"norad_id": 37834, "name": "INTELSAT 18 (IS-18)", "group": "intelsat", "lat": -0.03496097467697201, "lon": -139.3598166027208, "alt_km": 35779.70574899557, "timestamp": "2025-12-08T21:31:04.342961+00:00", "meta": {"OBJECT_NAME": "INTELSAT 18 (IS-18)", "OBJECT_ID": "2011-056A", "EPOCH": "2025-12-08T14:56:08.410848", "MEAN_MOTION": 1.00270991, "ECCENTRICITY": 0.00020978, "INCLINATION": 0.0184, "RA_OF_ASC_NODE": 338.9815, "ARG_OF_PERICENTER": 283.8407, "MEAN_ANOMALY": 218.8358, "EPHEMERIS_TYPE": 0, "CLASSIFICATION_TYPE": "U", "NORAD_CAT_ID": 37834, "ELEMENT_SET_NO": 999, "REV_AT_EPOCH": 5190, "BSTAR": 0, "MEAN_MOTION_DOT": 5.5e-07, "MEAN_MOTION_DDOT": 0}, "tle": {"line1": "1 37834U 11056A   25342.62231957  .00000055  00000+0  00000+0 0  9997", "line2": "2 37834   0.0184 338.9815 0002097 283.8407 218.8358  1.00270991 51906"}}, "geometry": {"type": "Point", "coordinates": [-139.3598166027208, -0.03496097467697201]}}, {"type": "Feature", "properties": {"norad_id": 38098, "name": "INTELSAT 22 (IS-22)", "group": "intelsat", "lat": 0.01739263999176418, "lon": 112.75707524607023, "alt_km": 35793.89155019454, "timestamp": "2025-12-08T21:31:04.342974+00:00", "meta": {"OBJECT_NAME": "INTELSAT 22 (IS-22)", "OBJECT_ID": "2012-011A", "EPOCH": "2025-12-08T13:56:50.272224", "MEAN_MOTION": 1.00267912, "ECCENTRICITY": 0.00016894, "INCLINATION": 0.0198, "RA_OF_ASC_NODE": 308.1155, "ARG_OF_PERICENTER": 324.972, "MEAN_ANOMALY": 85.8152, "EPHEMERIS_TYPE": 0, "CLASSIFICATION_TYPE": "U", "NORAD_CAT_ID": 38098, "ELEMENT_SET_NO": 999, "REV_AT_EPOCH": 527, "BSTAR": 0, "MEAN_MOTION_DOT": -5.6e-07, "MEAN_MOTION_DDOT": 0}, "tle": {"line1": "1 38098U 12011A   25342.58113741 -.00000056  00000+0  00000+0 0  9999", "line2": "2 38098   0.0198 308.1155 0001689 324.9720  85.8152  1.00267912  5273"}}, "geometry": {"type": "Point", "coordinates": [112.75707524607023, 0.01739263999176418]}}, {"type": "Feature", "properties": {"norad_id": 38356, "name": "INTELSAT 19 (IS-19)", "group": "intelsat", "lat": -0.024717736409781296, "lon": -153.3720747181376, "alt_km": 35778.34718310217, "timestamp": "2025-12-08T21:31:04.342985+00:00", "meta": {"OBJECT_NAME": "INTELSAT 19 (IS-19)", "OBJECT_ID": "2012-030A", "EPOCH": "2025-12-08T14:23:32.714016", "MEAN_MOTION": 1.00271413, "ECCENTRICITY": 0.00035678, "INCLINATION": 0.0101, "RA_OF_ASC_NODE": 328.5495, "ARG_OF_PERICENTER": 296.8794, "MEAN_ANOMALY": 194.0643, "EPHEMERIS_TYPE": 0, "CLASSIFICATION_TYPE": "U", "NORAD_CAT_ID": 38356, "ELEMENT_SET_NO": 999, "REV_AT_EPOCH": 4854, "BSTAR": 0, "MEAN_MOTION_DOT": -5.4e-07, "MEAN_MOTION_DDOT": 0}, "tle": {"line1": "1 38356U 12030A   25342.59968419 -.00000054  00000+0  00000+0 0  9996", "line2": "2 38356   0.0101 328.5495 0003567 296.8794 194.0643  1.00271413 48548"}}, "geometry": {"type": "Point", "coordinates": [-153.3720747181376, -0.024717736409781296]}}, {"type": "Feature", "properties": {"norad_id": 38740, "name": "INTELSAT 20 (IS-20)", "group": "intelsat", "lat": 0.001963603910478428, "lon": 109.14885793835741, "alt_km": 35781.64043895513, "timestamp": "2025-12-08T21:31:04.342998+00:00", "meta": {"OBJECT_NAME": "INTELSAT 20 (IS-20)", "OBJECT_ID": "2012-043A", "EPOCH": "2025-12-08T10:30:17.553024", "MEAN_MOTION": 1.00273639, "ECCENTRICITY": 0.0002741, "INCLINATION": 0.0021, "RA_OF_ASC_NODE": 74.2164, "ARG_OF_PERICENTER": 104.9934, "MEAN_ANOMALY": 124.3222, "EPHEMERIS_TYPE": 0, "CLASSIFICATION_TYPE": "U", "NORAD_CAT_ID": 38740, "ELEMENT_SET_NO": 999, "REV_AT_EPOCH": 4883, "BSTAR": 0, "MEAN_MOTION_DOT": -2.3e-07, "MEAN_MOTION_DDOT": 0}, "tle": {"line1": "1 38740U 12043A   25342.43770316 -.00000023  00000+0  00000+0 0  9993", "line2": "2 38740   0.0021  74.2164 0002741 104.9934 124.3222  1.00273639 48835"}}, "geometry": {"type": "Point", "coordinates": [109.14885793835741, 0.001963603910478428]}}, {"type": "Feature", "properties": {"norad_id": 38749, "name": "INTELSAT 21 (IS-21)", "group": "intelsat", "lat": -0.009400113049637377, "lon": -17.31104417385487, "alt_km": 35786.25385587229, "timestamp": "2025-12-08T21:31:04.343009+00:00", "meta": {"OBJECT_NAME": "INTELSAT 21 (IS-21)", "OBJECT_ID": "2012-045A", "EPOCH": "2025-12-08T11:36:56.170944", "MEAN_MOTION": 1.00270654, "ECCENTRICITY": 0.00022023, "INCLINATION": 0.0156, "RA_OF_ASC_NODE": 8.0468, "ARG_OF_PERICENTER": 245.7686, "MEAN_ANOMALY": 299.9134, "EPHEMERIS_TYPE": 0, "CLASSIFICATION_TYPE": "U", "NORAD_CAT_ID": 38749, "ELEMENT_SET_NO": 999, "REV_AT_EPOCH": 4861, "BSTAR": 0, "MEAN_MOTION_DOT": -2.83e-06, "MEAN_MOTION_DDOT": 0}, "tle": {"line1": "1 38749U 12045A   25342.48398346 -.00000283  00000+0  00000+0 0  9996", "line2": "2 38749   0.0156   8.0468 0002202 245.7686 299.9134  1.00270654 48616"}}, "geometry": {"type": "Point", "coordinates": [-17.31104417385487, -0.009400113049637377]}}, {"type": "Feature", "properties": {"norad_id": 38867, "name": "INTELSAT 23 (IS-23)", "group": "intelsat", "lat": -0.03061851891127071, "lon": -12.32085955855668, "alt_km": 35794.47918696456, "timestamp": "2025-12-08T21:31:04.343021+00:00", "meta": {"OBJECT_NAME": "INTELSAT 23 (IS-23)", "OBJECT_ID": "2012-057A", "EPOCH": "2025-12-08T11:38:26.026944", "MEAN_MOTION": 1.00265555, "ECCENTRICITY": 0.00019336, "INCLINATION": 0.0402, "RA_OF_ASC_NODE": 92.6513, "ARG_OF_PERICENTER": 110.5856, "MEAN_ANOMALY": 355.8774, "EPHEMERIS_TYPE": 0, "CLASSIFICATION_TYPE": "U", "NORAD_CAT_ID": 38867, "ELEMENT_SET_NO": 999, "REV_AT_EPOCH": 4804, "BSTAR": 0, "MEAN_MOTION_DOT": -2.82e-06, "MEAN_MOTION_DDOT": 0}, "tle": {"line1": "1 38867U 12057A   25342.48502346 -.00000282  00000+0  00000+0 0  9996", "line2": "2 38867   0.0402  92.6513 0001933 110.5856 355.8774  1.00265555 48042"}}, "geometry": {"type": "Point", "coordinates": [-12.32085955855668, -0.03061851891127071]}}, {"type": "Feature", "properties": {"norad_id": 39360, "name": "FM-6", "group": "intelsat", "lat": -0.003417211313714112, "lon": -75.45391134365306, "alt_km": 35792.63227602498, "timestamp": "2025-12-08T21:31:04.343033+00:00", "meta": {"OBJECT_NAME": "FM-6", "OBJECT_ID": "2013-058A", "EPOCH": "2025-12-08T13:15:20.429856", "MEAN_MOTION": 1.0026711, "ECCENTRICITY": 0.00031905, "INCLINATION": 0.0119, "RA_OF_ASC_NODE": 96.1147, "ARG_OF_PERICENTER": 75.3013, "MEAN_ANOMALY": 348.8342, "EPHEMERIS_TYPE": 0, "CLASSIFICATION_TYPE": "U", "NORAD_CAT_ID": 39360, "ELEMENT_SET_NO": 999, "REV_AT_EPOCH": 4416, "BSTAR": 0, "MEAN_MOTION_DOT": -1.4e-07, "MEAN_MOTION_DDOT": 0}, "tle": {"line1": "1 39360U 13058A   25342.55231979 -.00000014  00000+0  00000+0 0  9999", "line2": "2 39360   0.0119  96.1147 0003190  75.3013 348.8342  1.00267110 44169"}}, "geometry": {"type": "Point", "coordinates": [-75.45391134365306, -0.003417211313714112]}}, {"type": "Feature", "properties": {"norad_id": 40271, "name": "INTELSAT 30 (IS-30)", "group": "intelsat", "lat": -0.02578517073777346, "lon": -54.40439350297257, "alt_km": 35790.34687129775, "timestamp": "2025-12-08T21:31:04.343045+00:00", "meta": {"OBJECT_NAME": "INTELSAT 30 (IS-30)", "OBJECT_ID": "2014-062A", "EPOCH": "2025-12-08T12:25:08.959584", "MEAN_MOTION": 1.0027093, "ECCENTRICITY": 0.00012019, "INCLINATION": 0.0126, "RA_OF_ASC_NODE": 12.2657, "ARG_OF_PERICENTER": 75.3577, "MEAN_ANOMALY": 81.1316, "EPHEMERIS_TYPE": 0, "CLASSIFICATION_TYPE": "U", "NORAD_CAT_ID": 40271, "ELEMENT_SET_NO": 999, "REV_AT_EPOCH": 487, "BSTAR": 0, "MEAN_MOTION_DOT": -1.48e-06, "MEAN_MOTION_DDOT": 0}, "tle": {"line1": "1 40271U 14062A   25342.51746481 -.00000148  00000+0  00000+0 0  9991", "line2": "2 40271   0.0126  12.2657 0001201  75.3577  81.1316  1.00270930  4877"}}, "geometry": {"type": "Point", "coordinates": [-54.40439350297257, -0.02578517073777346]}}, {"type": "Feature", "properties": {"norad_id": 40333, "name": "DIRECTV 14", "group": "intelsat", "lat": -0.021391740438763285, "lon": -58.54560413383139, "alt_km": 35784.93895589768, "timestamp": "2025-12-08T21:31:04.343057+00:00", "meta": {"OBJECT_NAME": "DIRECTV 14", "OBJECT_ID": "2014-078B", "EPOCH": "2025-12-08T12:22:13.969344", "MEAN_MOTION": 1.0027432, "ECCENTRICITY": 4.815e-05, "INCLINATION": 0.0167, "RA_OF_ASC_NODE": 332.3244, "ARG_OF_PERICENTER": 251.5632, "MEAN_ANOMALY": 299.9766, "EPHEMERIS_TYPE": 0, "CLASSIFICATION_TYPE": "U", "NORAD_CAT_ID": 40333, "ELEMENT_SET_NO": 999, "REV_AT_EPOCH": 4013, "BSTAR": 0, "MEAN_MOTION_DOT": -1.24e-06, "MEAN_MOTION_DDOT": 0}, "tle": {"line1": "1 40333U 14078B   25342.51543946 -.00000124  00000+0  00000+0 0  9992", "line2": "2 40333   0.0167 332.3244 0000481 251.5632 299.9766  1.00274320 40132"}}, "geometry": {"type": "Point", "coordinates": [-58.54560413383139, -0.021391740438763285]}}, {"type": "Feature", "properties": {"norad_id": 40663, "name": "DIRECTV 15", "group": "intelsat", "lat": -0.03362998223196954, "lon": -62.2019962577548, "alt_km": 35785.60355494711, "timestamp": "2025-12-08T21:31:04.343069+00:00", "meta": {"OBJECT_NAME": "DIRECTV 15", "OBJECT_ID": "2015-026A", "EPOCH": "2025-12-08T13:18:55.673856", "MEAN_MOTION": 1.0026897, "ECCENTRICITY": 3.164e-05, "INCLINATION": 0.0367, "RA_OF_ASC_NODE": 78.2535, "ARG_OF_PERICENTER": 202.6334, "MEAN_ANOMALY": 253.5446, "EPHEMERIS_TYPE": 0, "CLASSIFICATION_TYPE": "U", "NORAD_CAT_ID": 40663, "ELEMENT_SET_NO": 999, "REV_AT_EPOCH": 3855, "BSTAR": 0, "MEAN_MOTION_DOT": -1e-06, "MEAN_MOTION_DDOT": 0}, "tle": {"line1": "1 40663U 15026A   25342.55481104 -.00000100  00000+0  00000+0 0  9997", "line2": "2 40663   0.0367  78.2535 0000316 202.6334 253.5446  1.00268970 38550"}}, "geometry": {"type": "Point", "coordinates": [-62.2019962577548, -0.03362998223196954]}}]}